PLEIADES 1A             
1 38012U 11076F   26201.95617080  .00000006  00000+0  11037-4 0  9997
2 38012  98.1961 276.6031 0001604  77.3304  35.1699 14.58548101776910
PLEIADES 1B             
1 39019U 12068A   26201.90017331 -.00000111  00000+0 -13959-4 0  9999
2 39019  98.1931 276.4852 0001484  77.5676 282.5689 14.58535158725766
